GPS BIIR-2  (PRN 13)    
1 24876U 97035A   16294.74784688 -.00000004  00000-0  00000-0 0  9990
2 24876  55.6157 236.5416 0037907 111.4767 248.9247  2.00561783141226
GPS BIIR-3  (PRN 11)    
1 25933U 99055A   16295.33136501  .00000000  00000-0  00000+0 0  9994
2 25933  51.4720  88.1164 0165863  90.9840 258.9582  2.00561691124859
GPS BIIR-4  (PRN 20)    
1 26360U 00025A   16295.40112953 -.00000004  00000-0  00000+0 0  9996
2 26360  53.0830 164.8520 0045027  83.7859  53.9601  2.00572032120550
GPS BIIR-5  (PRN 28)    
1 26407U 00040A   16295.46912997 -.00000087  00000-0  00000+0 0  9998
2 26407  56.6848 354.4556 0202534 268.0044 202.6287  2.00568786119224
GPS BIIR-6  (PRN 14)    
1 26605U 00071A   16295.19034057 -.00000010  00000-0  00000+0 0  9990
2 26605  55.1855 234.3476 0089442 249.1186 286.0510  2.00572503116810
GPS BIIR-7  (PRN 18)    
1 26690U 01004A   16295.46999522 -.00000007  00000-0  00000+0 0  9994
2 26690  53.0082 167.8060 0174670 253.9409 242.4826  2.00557130115220
GPS BIIR-8  (PRN 16)    
1 27663U 03005A   16295.17220383 -.00000085  00000-0  00000+0 0  9994
2 27663  56.7568 354.1926 0086133  20.4785 354.4552  2.00574493100586
GPS BIIR-9  (PRN 21)    
1 27704U 03010A   16295.49476209  .00000025  00000-0  00000+0 0  9994
2 27704  53.7253 108.1360 0235653 259.8132 315.4638  2.00547601 99384
GPS BIIR-10 (PRN 22)    
1 28129U 03058A   16294.94570926 -.00000003  00000-0  00000+0 0  9995
2 28129  52.8910 167.8474 0075704 254.1663 105.0818  2.00560245 94073
GPS BIIR-11 (PRN 19)    
1 28190U 04009A   16295.29117289 -.00000040  00000-0  00000+0 0  9999
2 28190  55.8695  55.3883 0102309  49.5968 203.8660  2.00568397 92262
GPS BIIR-12 (PRN 23)    
1 28361U 04023A   16295.31885098 -.00000016  00000-0  00000+0 0  9991
2 28361  54.1621 229.6973 0112781 216.2677 331.3005  2.00571933 90341
GPS BIIR-13 (PRN 02)    
1 28474U 04045A   16295.42790469  .00000025  00000-0  00000+0 0  9998
2 28474  54.1109 107.5133 0162329 241.3869  27.5979  2.00565066 87715
GPS BIIRM-1 (PRN 17)    
1 28874U 05038A   16295.46350637 -.00000045  00000-0  00000+0 0  9991
2 28874  56.0323  52.6094 0115646 250.4958 147.0425  2.00553589 81113
GPS BIIRM-2 (PRN 31)    
1 29486U 06042A   16295.25562095 -.00000015  00000-0  00000+0 0  9994
2 29486  55.5550 291.8416 0084938 337.3897 192.0884  2.00575071 73828
GPS BIIRM-3 (PRN 12)    
1 29601U 06052A   16294.96556285 -.00000083  00000-0  00000+0 0  9990
2 29601  56.7285 353.1227 0058722  43.2874 317.2277  2.00567815 72729
GPS BIIRM-4 (PRN 15)    
1 32260U 07047A   16294.77781691 -.00000012  00000-0  00000+0 0  9992
2 32260  53.2896 226.2794 0085384  28.3365 332.1345  2.00561351 66113
GPS BIIRM-5 (PRN 29)    
1 32384U 07062A   16295.49511084 -.00000044  00000-0  00000+0 0  9998
2 32384  56.0911  53.1739 0005452 336.8136 315.1285  2.00557085 64858
GPS BIIRM-6 (PRN 07)    
1 32711U 08012A   16295.18715175 -.00000015  00000-0  00000+0 0  9999
2 32711  55.2804 291.2715 0101706 210.9407 148.4597  2.00569262 63037
GPS BIIRM-8 (PRN 05)    
1 35752U 09043A   16295.03565406 -.00000003  00000-0  00000+0 0  9993
2 35752  54.2286 169.2149 0047212  28.2235 248.5370  2.00569610 52613
GPS BIIF-1  (PRN 25)    
1 36585U 10022A   16295.42768709 -.00000084  00000-0  00000+0 0  9990
2 36585  56.0469 350.0877 0054553  42.5165 260.3042  2.00562652 46874
GPS BIIF-2  (PRN 01)    
1 37753U 11036A   16295.38260512  .00000030  00000-0  00000+0 0  9998
2 37753  55.3235 110.3051 0058406  30.3120 330.1894  2.00560266 38559
GPS BIIF-3  (PRN 24)    
1 38833U 12053A   16294.37347797 -.00000017  00000-0  00000-0 0  9994
2 38833  54.3104 288.4581 0047407  19.8956 340.2877  2.00557650 28810
GPS BIIF-4  (PRN 27)    
1 39166U 13023A   16295.22860603 -.00000050  00000-0  00000+0 0  9999
2 39166  55.7419  49.7108 0037923  15.7015 344.4170  2.00566080 25153
GPS BIIF-5  (PRN 30)    
1 39533U 14008A   16295.22712363 -.00000020  00000-0  00000+0 0  9997
2 39533  54.4652 293.6798 0024135 186.5695 173.4053  2.00553391 19528
GPS BIIF-6  (PRN 06)    
1 39741U 14026A   16294.51560798  .00000026  00000-0  00000+0 0  9997
2 39741  55.3120 109.8584 0004427 265.4966  94.4816  2.00550184 17782
GPS BIIF-7  (PRN 09)    
1 40105U 14045A   16295.09977966 -.00000012  00000-0  00000+0 0  9993
2 40105  54.6831 229.4846 0004039 116.7983 243.2489  2.00552852 16249
GPS BIIF-8  (PRN 03)    
1 40294U 14068A   16294.97173733 -.00000002  00000-0  00000+0 0  9992
2 40294  54.9721 170.0121 0002173 347.8454  12.2336  2.00572170 14465
GPS BIIF-9  (PRN 26)    
1 40534U 15013A   16295.11297391 -.00000084  00000-0  00000+0 0  9994
2 40534  55.0096 349.4383 0011662 338.5116  21.4931  2.00572568 11535
GPS BIIF-10  (PRN 08)   
1 40730U 15033A   16294.77577433 -.00000050  00000-0  00000+0 0  9996
2 40730  55.2776  49.5089 0020530 298.3896  61.4055  2.00552752  9286
GPS BIIF-11  (PRN 10)   
1 41019U 15062A   16294.82483350 -.00000000  00000-0  00000+0 0  9994
2 41019  54.9842 169.7957 0018779 200.0313 159.9795  2.00562725  7106
GPS BIIF-12  (PRN 32)   
1 41328U 16007A   16294.90970272 -.00000009  00000-0  00000+0 0  9999
2 41328  54.9443 229.6135 0007890 233.3726 126.5604  2.00565302  5166
